0 COSMOS 2251 DEB
1 37996U 93036BQX 13280.98508048  .00001930  00000-0  15037-2 0  1017
2 37996 074.0820 119.6059 0332899 184.8564 174.8934 13.69995963621700
0 COSMOS 2251 DEB
1 37996U 93036BQX 13287.48403363  .00002596  00000-0  20217-2 0  1029
2 37996 074.0843 108.9225 0331397 172.8287 188.0865 13.70036750622592
0 COSMOS 2251 DEB
1 37996U 93036BQX 13292.44921557  .00005474  00000-0  42262-2 0  1034
2 37996 074.0817 100.7368 0332620 163.5022 197.7243 13.70100290623268
0 COSMOS 2251 DEB
1 37996U 93036BQX 13294.85874808  .00006802  00000-0  52526-2 0  1048
2 37996 074.0826 096.7875 0331922 158.9925 202.5209 13.70124401623592
